CCSDS_OMM_VERS = 2.0
CREATION_DATE  = 
ORIGINATOR     = 

OBJECT_NAME    = COSMOS 2242
OBJECT_ID      = 1993-024A
CENTER_NAME    = EARTH
REF_FRAME      = TEME
TIME_SYSTEM    = UTC
MEAN_ELEMENT_THEORY = SGP/SGP4

EPOCH          = 2026-03-31T03:57:27.169920
MEAN_MOTION    = 14.96643554
ECCENTRICITY   = .00152032
INCLINATION    = 82.5167
RA_OF_ASC_NODE = 246.1693
ARG_OF_PERICENTER = 229.9227
MEAN_ANOMALY   = 130.0663

EPHEMERIS_TYPE = 0
CLASSIFICATION_TYPE = U
NORAD_CAT_ID   = 22626
ELEMENT_SET_NO = 999
REV_AT_EPOCH   = 78360
BSTAR          = .29049728E-3
MEAN_MOTION_DOT = .3344E-4
MEAN_MOTION_DDOT = 0

CCSDS_OMM_VERS = 2.0
CREATION_DATE  = 
ORIGINATOR     = 

OBJECT_NAME    = SL-16 R/B
OBJECT_ID      = 1993-059B
CENTER_NAME    = EARTH
REF_FRAME      = TEME
TIME_SYSTEM    = UTC
MEAN_ELEMENT_THEORY = SGP/SGP4

EPOCH          = 2026-03-31T01:47:37.233600
MEAN_MOTION    = 14.17234538
ECCENTRICITY   = .00172963
INCLINATION    = 70.9914
RA_OF_ASC_NODE = 326.0327
ARG_OF_PERICENTER = 185.3137
MEAN_ANOMALY   = 174.7806

EPHEMERIS_TYPE = 0
CLASSIFICATION_TYPE = U
NORAD_CAT_ID   = 22803
ELEMENT_SET_NO = 999
REV_AT_EPOCH   = 68256
BSTAR          = -.53684701E-4
MEAN_MOTION_DOT = -.157E-5
MEAN_MOTION_DDOT = 0

CCSDS_OMM_VERS = 2.0
CREATION_DATE  = 
ORIGINATOR     = 

OBJECT_NAME    = ARIANE 40 R/B
OBJECT_ID      = 1993-061H
CENTER_NAME    = EARTH
REF_FRAME      = TEME
TIME_SYSTEM    = UTC
MEAN_ELEMENT_THEORY = SGP/SGP4

EPOCH          = 2026-03-31T04:57:04.067712
MEAN_MOTION    = 14.32872558
ECCENTRICITY   = .00101338
INCLINATION    = 98.4876
RA_OF_ASC_NODE = 158.6652
ARG_OF_PERICENTER = 214.9577
MEAN_ANOMALY   = 145.0943

EPHEMERIS_TYPE = 0
CLASSIFICATION_TYPE = U
NORAD_CAT_ID   = 22830
ELEMENT_SET_NO = 999
REV_AT_EPOCH   = 69718
BSTAR          = .11509537E-3
MEAN_MOTION_DOT = .271E-5
MEAN_MOTION_DDOT = 0

CCSDS_OMM_VERS = 2.0
CREATION_DATE  = 
ORIGINATOR     = 

OBJECT_NAME    = COSMOS 2278
OBJECT_ID      = 1994-023A
CENTER_NAME    = EARTH
REF_FRAME      = TEME
TIME_SYSTEM    = UTC
MEAN_ELEMENT_THEORY = SGP/SGP4

EPOCH          = 2026-03-31T05:44:22.115040
MEAN_MOTION    = 14.14374960
ECCENTRICITY   = .00092272
INCLINATION    = 71.0511
RA_OF_ASC_NODE = 130.0149
ARG_OF_PERICENTER = 340.5501
MEAN_ANOMALY   = 19.5268

EPHEMERIS_TYPE = 0
CLASSIFICATION_TYPE = U
NORAD_CAT_ID   = 23087
ELEMENT_SET_NO = 999
REV_AT_EPOCH   = 64785
BSTAR          = -.42927641E-4
MEAN_MOTION_DOT = -.129E-5
MEAN_MOTION_DDOT = 0

CCSDS_OMM_VERS = 2.0
CREATION_DATE  = 
ORIGINATOR     = 

OBJECT_NAME    = SL-16 R/B
OBJECT_ID      = 1994-023B
CENTER_NAME    = EARTH
REF_FRAME      = TEME
TIME_SYSTEM    = UTC
MEAN_ELEMENT_THEORY = SGP/SGP4

EPOCH          = 2026-03-31T04:55:32.653920
MEAN_MOTION    = 14.15017188
ECCENTRICITY   = .00055018
INCLINATION    = 71.0024
RA_OF_ASC_NODE = 25.7006
ARG_OF_PERICENTER = 266.0877
MEAN_ANOMALY   = 93.9617

EPHEMERIS_TYPE = 0
CLASSIFICATION_TYPE = U
NORAD_CAT_ID   = 23088
ELEMENT_SET_NO = 999
REV_AT_EPOCH   = 64913
BSTAR          = .18593875E-3
MEAN_MOTION_DOT = .312E-5
MEAN_MOTION_DDOT = 0

CCSDS_OMM_VERS = 2.0
CREATION_DATE  = 
ORIGINATOR     = 

OBJECT_NAME    = SL-16 R/B
OBJECT_ID      = 1994-074B
CENTER_NAME    = EARTH
REF_FRAME      = TEME
TIME_SYSTEM    = UTC
MEAN_ELEMENT_THEORY = SGP/SGP4

EPOCH          = 2026-03-31T02:22:42.876768
MEAN_MOTION    = 14.79432610
ECCENTRICITY   = .00074447
INCLINATION    = 97.7076
RA_OF_ASC_NODE = 120.0470
ARG_OF_PERICENTER = 141.9004
MEAN_ANOMALY   = 282.1094

EPHEMERIS_TYPE = 0
CLASSIFICATION_TYPE = U
NORAD_CAT_ID   = 23343
ELEMENT_SET_NO = 999
REV_AT_EPOCH   = 69041
BSTAR          = .90551592E-4
MEAN_MOTION_DOT = .627E-5
MEAN_MOTION_DDOT = 0

CCSDS_OMM_VERS = 2.0
CREATION_DATE  = 
ORIGINATOR     = 

OBJECT_NAME    = SL-16 R/B
OBJECT_ID      = 1994-077B
CENTER_NAME    = EARTH
REF_FRAME      = TEME
TIME_SYSTEM    = UTC
MEAN_ELEMENT_THEORY = SGP/SGP4

EPOCH          = 2026-03-31T00:53:26.474208
MEAN_MOTION    = 14.15569067
ECCENTRICITY   = .00018182
INCLINATION    = 70.9830
RA_OF_ASC_NODE = 307.5799
ARG_OF_PERICENTER = 195.4629
MEAN_ANOMALY   = 164.6438

EPHEMERIS_TYPE = 0
CLASSIFICATION_TYPE = U
NORAD_CAT_ID   = 23405
ELEMENT_SET_NO = 999
REV_AT_EPOCH   = 61925
BSTAR          = -.36084101E-4
MEAN_MOTION_DOT = -.119E-5
MEAN_MOTION_DDOT = 0

CCSDS_OMM_VERS = 2.0
CREATION_DATE  = 
ORIGINATOR     = 

OBJECT_NAME    = ARIANE 40+ R/B
OBJECT_ID      = 1995-021B
CENTER_NAME    = EARTH
REF_FRAME      = TEME
TIME_SYSTEM    = UTC
MEAN_ELEMENT_THEORY = SGP/SGP4

EPOCH          = 2026-03-31T05:20:29.883840
MEAN_MOTION    = 14.39788097
ECCENTRICITY   = .00078926
INCLINATION    = 98.4459
RA_OF_ASC_NODE = 161.4094
ARG_OF_PERICENTER = 81.0682
MEAN_ANOMALY   = 346.3847

EPHEMERIS_TYPE = 0
CLASSIFICATION_TYPE = U
NORAD_CAT_ID   = 23561
ELEMENT_SET_NO = 999
REV_AT_EPOCH   = 62234
BSTAR          = .13598906E-3
MEAN_MOTION_DOT = .383E-5
MEAN_MOTION_DDOT = 0

CCSDS_OMM_VERS = 2.0
CREATION_DATE  = 
ORIGINATOR     = 

OBJECT_NAME    = SL-16 R/B
OBJECT_ID      = 1995-058B
CENTER_NAME    = EARTH
REF_FRAME      = TEME
TIME_SYSTEM    = UTC
MEAN_ELEMENT_THEORY = SGP/SGP4

EPOCH          = 2026-03-31T04:28:31.386432
MEAN_MOTION    = 14.15498443
ECCENTRICITY   = .00101754
INCLINATION    = 71.0198
RA_OF_ASC_NODE = 135.1258
ARG_OF_PERICENTER = 86.1525
MEAN_ANOMALY   = 274.0761

EPHEMERIS_TYPE = 0
CLASSIFICATION_TYPE = U
NORAD_CAT_ID   = 23705
ELEMENT_SET_NO = 999
REV_AT_EPOCH   = 57089
BSTAR          = -.76627861E-4
MEAN_MOTION_DOT = -.197E-5
MEAN_MOTION_DDOT = 0

CCSDS_OMM_VERS = 2.0
CREATION_DATE  = 
ORIGINATOR     = 

OBJECT_NAME    = SL-16 R/B
OBJECT_ID      = 1996-051B
CENTER_NAME    = EARTH
REF_FRAME      = TEME
TIME_SYSTEM    = UTC
MEAN_ELEMENT_THEORY = SGP/SGP4

EPOCH          = 2026-03-31T04:47:47.738976
MEAN_MOTION    = 14.12422015
ECCENTRICITY   = .00133476
INCLINATION    = 70.7584
RA_OF_ASC_NODE = 129.7120
ARG_OF_PERICENTER = 113.0800
MEAN_ANOMALY   = 247.1728

EPHEMERIS_TYPE = 0
CLASSIFICATION_TYPE = U
NORAD_CAT_ID   = 24298
ELEMENT_SET_NO = 999
REV_AT_EPOCH   = 52468
BSTAR          = .10602044E-3
MEAN_MOTION_DOT = .147E-5
MEAN_MOTION_DDOT = 0

CCSDS_OMM_VERS = 2.0
CREATION_DATE  = 
ORIGINATOR     = 

OBJECT_NAME    = ORBVIEW 2 (SEASTAR)
OBJECT_ID      = 1997-037A
CENTER_NAME    = EARTH
REF_FRAME      = TEME
TIME_SYSTEM    = UTC
MEAN_ELEMENT_THEORY = SGP/SGP4

EPOCH          = 2026-03-30T22:56:13.510752
MEAN_MOTION    = 14.35510016
ECCENTRICITY   = .00022948
INCLINATION    = 98.8604
RA_OF_ASC_NODE = 254.8351
ARG_OF_PERICENTER = 24.7885
MEAN_ANOMALY   = 335.3409

EPHEMERIS_TYPE = 0
CLASSIFICATION_TYPE = U
NORAD_CAT_ID   = 24883
ELEMENT_SET_NO = 999
REV_AT_EPOCH   = 51152
BSTAR          = .14292668E-3
MEAN_MOTION_DOT = .364E-5
MEAN_MOTION_DDOT = 0

CCSDS_OMM_VERS = 2.0
CREATION_DATE  = 
ORIGINATOR     = 

OBJECT_NAME    = SL-16 R/B
OBJECT_ID      = 1998-043G
CENTER_NAME    = EARTH
REF_FRAME      = TEME
TIME_SYSTEM    = UTC
MEAN_ELEMENT_THEORY = SGP/SGP4

EPOCH          = 2026-03-31T06:31:15.180672
MEAN_MOTION    = 14.26054870
ECCENTRICITY   = .00090994
INCLINATION    = 98.8291
RA_OF_ASC_NODE = 43.7929
ARG_OF_PERICENTER = 316.8954
MEAN_ANOMALY   = 43.1512

EPHEMERIS_TYPE = 0
CLASSIFICATION_TYPE = U
NORAD_CAT_ID   = 25400
ELEMENT_SET_NO = 999
REV_AT_EPOCH   = 44206
BSTAR          = .54461248E-4
MEAN_MOTION_DOT = .85E-6
MEAN_MOTION_DDOT = 0

